{
  "type": "FeatureCollection",
  "features": [
    {
      "type": "Feature",
      "properties": {
        "norad_id": 67082,
        "name": "STARLINK-36035",
        "group": "last-30-days",
        "lat": 55.67919724202985,
        "lon": -104.69751158579483,
        "alt_km": 302.0227977020759,
        "timestamp": "2025-12-22T05:49:02.189409+00:00",
        "meta_object_name": "STARLINK-36035",
        "meta_object_id": "2025-298H",
        "meta_epoch": "2025-12-21T20:00:01.999008",
        "meta_mean_motion": 15.89086371,
        "meta_eccentricity": 0.000457,
        "meta_inclination": 69.9984,
        "meta_ra_of_asc_node": 224.2368,
        "meta_arg_of_pericenter": 264.9831,
        "meta_mean_anomaly": 337.4179,
        "meta_ephemeris_type": 0,
        "meta_classification_type": "U",
        "meta_norad_cat_id": 67082,
        "meta_element_set_no": 999,
        "meta_rev_at_epoch": 244,
        "meta_bstar": -0.0004117,
        "meta_mean_motion_dot": -0.0011941,
        "meta_mean_motion_ddot": 8.5348e-06,
        "tle_line1": "1 67082U 25298H   25355.83335647 -.00119410  85348-5 -41170-3 0  9995",
        "tle_line2": "2 67082  69.9984 224.2368 0004570 264.9831 337.4179 15.89086371  2448"
      },
      "geometry": {
        "type": "Point",
        "coordinates": [
          -104.69751158579483,
          55.67919724202985
        ]
      }
    },
    {
      "type": "Feature",
      "properties": {
        "norad_id": 67083,
        "name": "STARLINK-36170",
        "group": "last-30-days",
        "lat": 57.265229182727595,
        "lon": -102.4304713910208,
        "alt_km": 301.7769522629378,
        "timestamp": "2025-12-22T05:49:02.189423+00:00",
        "meta_object_name": "STARLINK-36170",
        "meta_object_id": "2025-298J",
        "meta_epoch": "2025-12-21T20:00:01.999008",
        "meta_mean_motion": 15.89137096,
        "meta_eccentricity": 0.0004608,
        "meta_inclination": 69.9982,
        "meta_ra_of_asc_node": 224.2343,
        "meta_arg_of_pericenter": 264.6189,
        "meta_mean_anomaly": 339.7338,
        "meta_ephemeris_type": 0,
        "meta_classification_type": "U",
        "meta_norad_cat_id": 67083,
        "meta_element_set_no": 999,
        "meta_rev_at_epoch": 244,
        "meta_bstar": -0.00044885,
        "meta_mean_motion_dot": -0.00130403,
        "meta_mean_motion_ddot": 9.4302e-06,
        "tle_line1": "1 67083U 25298J   25355.83335647 -.00130403  94302-5 -44885-3 0  9997",
        "tle_line2": "2 67083  69.9982 224.2343 0004608 264.6189 339.7338 15.89137096  2448"
      },
      "geometry": {
        "type": "Point",
        "coordinates": [
          -102.4304713910208,
          57.265229182727595
        ]
      }
    },
    {
      "type": "Feature",
      "properties": {
        "norad_id": 67084,
        "name": "STARLINK-36166",
        "group": "last-30-days",
        "lat": 58.71072082541666,
        "lon": -100.1252311815999,
        "alt_km": 301.45512803649945,
        "timestamp": "2025-12-22T05:49:02.189436+00:00",
        "meta_object_name": "STARLINK-36166",
        "meta_object_id": "2025-298K",
        "meta_epoch": "2025-12-21T20:00:01.999008",
        "meta_mean_motion": 15.89187089,
        "meta_eccentricity": 0.0004581,
        "meta_inclination": 69.9983,
        "meta_ra_of_asc_node": 224.232,
        "meta_arg_of_pericenter": 266.048,
        "meta_mean_anomaly": 340.1222,
        "meta_ephemeris_type": 0,
        "meta_classification_type": "U",
        "meta_norad_cat_id": 67084,
        "meta_element_set_no": 999,
        "meta_rev_at_epoch": 238,
        "meta_bstar": -0.00045053,
        "meta_mean_motion_dot": -0.00131209,
        "meta_mean_motion_ddot": 9.5021e-06,
        "tle_line1": "1 67084U 25298K   25355.83335647 -.00131209  95021-5 -45053-3 0  9990",
        "tle_line2": "2 67084  69.9983 224.2320 0004581 266.0480 340.1222 15.89187089  2383"
      },
      "geometry": {
        "type": "Point",
        "coordinates": [
          -100.1252311815999,
          58.71072082541666
        ]
      }
    },
    {
      "type": "Feature",
      "properties": {
        "norad_id": 67085,
        "name": "STARLINK-35794",
        "group": "last-30-days",
        "lat": 60.08790066208162,
        "lon": -97.66738424784606,
        "alt_km": 301.25928758256487,
        "timestamp": "2025-12-22T05:49:02.189446+00:00",
        "meta_object_name": "STARLINK-35794",
        "meta_object_id": "2025-298L",
        "meta_epoch": "2025-12-21T20:00:01.999008",
        "meta_mean_motion": 15.89237139,
        "meta_eccentricity": 0.0004686,
        "meta_inclination": 69.9983,
        "meta_ra_of_asc_node": 224.23,
        "meta_arg_of_pericenter": 265.79,
        "meta_mean_anomaly": 342.1664,
        "meta_ephemeris_type": 0,
        "meta_classification_type": "U",
        "meta_norad_cat_id": 67085,
        "meta_element_set_no": 999,
        "meta_rev_at_epoch": 244,
        "meta_bstar": -0.00045261,
        "meta_mean_motion_dot": -0.00132143,
        "meta_mean_motion_ddot": 9.5855e-06,
        "tle_line1": "1 67085U 25298L   25355.83335647 -.00132143  95855-5 -45261-3 0  9995",
        "tle_line2": "2 67085  69.9983 224.2300 0004686 265.7900 342.1664 15.89237139  2442"
      },
      "geometry": {
        "type": "Point",
        "coordinates": [
          -97.66738424784606,
          60.08790066208162
        ]
      }
    },
    {
      "type": "Feature",
      "properties": {
        "norad_id": 67086,
        "name": "STARLINK-35841",
        "group": "last-30-days",
        "lat": 61.605980663918125,
        "lon": -94.58797258904448,
        "alt_km": 300.8850239052681,
        "timestamp": "2025-12-22T05:49:02.189456+00:00",
        "meta_object_name": "STARLINK-35841",
        "meta_object_id": "2025-298M",
        "meta_epoch": "2025-12-21T20:00:01.999008",
        "meta_mean_motion": 15.89288177,
        "meta_eccentricity": 0.000451,
        "meta_inclination": 69.9982,
        "meta_ra_of_asc_node": 224.2274,
        "meta_arg_of_pericenter": 264.1424,
        "meta_mean_anomaly": 345.8731,
        "meta_ephemeris_type": 0,
        "meta_classification_type": "U",
        "meta_norad_cat_id": 67086,
        "meta_element_set_no": 999,
        "meta_rev_at_epoch": 244,
        "meta_bstar": -0.00044817,
        "meta_mean_motion_dot": -0.00131181,
        "meta_mean_motion_ddot": 9.5068e-06,
        "tle_line1": "1 67086U 25298M   25355.83335647 -.00131181  95068-5 -44817-3 0  9999",
        "tle_line2": "2 67086  69.9982 224.2274 0004510 264.1424 345.8731 15.89288177  2445"
      },
      "geometry": {
        "type": "Point",
        "coordinates": [
          -94.58797258904448,
          61.605980663918125
        ]
      }
    },
    {
      "type": "Feature",
      "properties": {
        "norad_id": 67087,
        "name": "STARLINK-35842",
        "group": "last-30-days",
        "lat": 62.7414366095279,
        "lon": -91.96395419771076,
        "alt_km": 300.5462063413661,
        "timestamp": "2025-12-22T05:49:02.189466+00:00",
        "meta_object_name": "STARLINK-35842",
        "meta_object_id": "2025-298N",
        "meta_epoch": "2025-12-21T20:00:01.999008",
        "meta_mean_motion": 15.89314063,
        "meta_eccentricity": 0.0004618,
        "meta_inclination": 69.9981,
        "meta_ra_of_asc_node": 224.2252,
        "meta_arg_of_pericenter": 268.5213,
        "meta_mean_anomaly": 343.0739,
        "meta_ephemeris_type": 0,
        "meta_classification_type": "U",
        "meta_norad_cat_id": 67087,
        "meta_element_set_no": 999,
        "meta_rev_at_epoch": 244,
        "meta_bstar": -0.00017663,
        "meta_mean_motion_dot": -0.00052519,
        "meta_mean_motion_ddot": 4.788e-06,
        "tle_line1": "1 67087U 25298N   25355.83335647 -.00052519  47880-5 -17663-3 0  9995",
        "tle_line2": "2 67087  69.9981 224.2252 0004618 268.5213 343.0739 15.89314063  2446"
      },
      "geometry": {
        "type": "Point",
        "coordinates": [
          -91.96395419771076,
          62.7414366095279
        ]
      }
    },
    {
      "type": "Feature",
      "properties": {
        "norad_id": 67088,
        "name": "STARLINK-35882",
        "group": "last-30-days",
        "lat": 64.07617761779257,
        "lon": -88.42152260431399,
        "alt_km": 299.81228745401677,
        "timestamp": "2025-12-22T05:49:02.189476+00:00",
        "meta_object_name": "STARLINK-35882",
        "meta_object_id": "2025-298P",
        "meta_epoch": "2025-12-21T20:00:01.999008",
        "meta_mean_motion": 15.89371,
        "meta_eccentricity": 0.000353,
        "meta_inclination": 69.9983,
        "meta_ra_of_asc_node": 224.223,
        "meta_arg_of_pericenter": 274.4292,
        "meta_mean_anomaly": 339.2377,
        "meta_ephemeris_type": 0,
        "meta_classification_type": "U",
        "meta_norad_cat_id": 67088,
        "meta_element_set_no": 999,
        "meta_rev_at_epoch": 244,
        "meta_bstar": -0.00066541,
        "meta_mean_motion_dot": -0.00194888,
        "meta_mean_motion_ddot": 1.6225e-05,
        "tle_line1": "1 67088U 25298P   25355.83335647 -.00194888  16225-4 -66541-3 0  9999",
        "tle_line2": "2 67088  69.9983 224.2230 0003530 274.4292 339.2377 15.89371000  2449"
      },
      "geometry": {
        "type": "Point",
        "coordinates": [
          -88.42152260431399,
          64.07617761779257
        ]
      }
    }
  ]
}